0 SL-12 DEB
1 18766U 85042J   13282.11345781  .00001372  00000-0  62286-3 0  9072
2 18766 066.5738 348.4939 0066100 217.0237 223.4643 14.23744403327211
0 SL-12 DEB
1 18766U 85042J   13283.16963242  .00001235  00000-0  56417-3 0  9084
2 18766 066.5737 345.7453 0066022 216.3920 236.7614 14.23748676327362
0 SL-12 DEB
1 18766U 85042J   13286.54484993  .00000976  00000-0  45349-3 0  9106
2 18766 066.5731 336.9614 0065739 214.2962 256.2148 14.23758053327846
0 SL-12 DEB
1 18766U 85042J   13287.59206200  .00001144  00000-0  52541-3 0  9116
2 18766 066.5729 334.2359 0065643 213.6512 223.6531 14.23760590327997
0 SL-12 DEB
1 18766U 85042J   13289.14190507  .00001453  00000-0  65716-3 0  9123
2 18766 066.5728 330.2022 0065495 212.6832 247.3428 14.23767336328217
0 SL-12 DEB
1 18766U 85042J   13290.19788176  .00001556  00000-0  70115-3 0  9139
2 18766 066.5727 327.4538 0065400 212.0104 259.7634 14.23769296328367
0 SL-12 DEB
1 18766U 85042J   13291.24285933  .00001576  00000-0  70987-3 0  9149
2 18766 066.5727 324.7341 0065292 211.3636 215.7983 14.23771980328519
0 SL-12 DEB
1 18766U 85042J   13292.52535069  .00001642  00000-0  73819-3 0  9151
2 18766 066.5728 321.3960 0065163 210.5394 309.2545 14.23776351328698
0 SL-12 DEB
1 18766U 85042J   13294.19316057  .00001599  00000-0  71965-3 0  9162
2 18766 066.5728 317.0551 0064979 209.4942 217.6730 14.23783758328930
0 SL-12 DEB
1 18766U 85042J   13295.47666560  .00001655  00000-0  74354-3 0  9170
2 18766 066.5727 313.7144 0064827 208.6792 316.3633 14.23789222329118
